[{"OBJECT_NAME":"STARLINK-2299","OBJECT_ID":"2021-024BE","EPOCH":"2026-03-10T00:00:02.999808","MEAN_MOTION":15.15231686,"ECCENTRICITY":0.00013271,"INCLINATION":53.0911,"RA_OF_ASC_NODE":329.9231,"ARG_OF_PERICENTER":84.8975,"MEAN_ANOMALY":266.4896,"EPHEMERIS_TYPE":0,"CLASSIFICATION_TYPE":"U","NORAD_CAT_ID":48029,"ELEMENT_SET_NO":999,"REV_AT_EPOCH":574,"BSTAR":0.0017905191,"MEAN_MOTION_DOT":0.00033905,"MEAN_MOTION_DDOT":0},{"OBJECT_NAME":"AAC-HSI-SAT2","OBJECT_ID":"2023-084BX","EPOCH":"2026-03-09T22:35:55.269024","MEAN_MOTION":15.19636036,"ECCENTRICITY":0.00130289,"INCLINATION":97.809,"RA_OF_ASC_NODE":215.6104,"ARG_OF_PERICENTER":163.6143,"MEAN_ANOMALY":196.5515,"EPHEMERIS_TYPE":0,"CLASSIFICATION_TYPE":"U","NORAD_CAT_ID":56995,"ELEMENT_SET_NO":999,"REV_AT_EPOCH":15126,"BSTAR":0.00025757454,"MEAN_MOTION_DOT":5.427e-5,"MEAN_MOTION_DDOT":0}]
